{
"type": "FeatureCollection",
"name": "batas_dusun_barurejo2",
"crs": { "type": "name", "properties": { "name": "urn:ogc:def:crs:OGC:1.3:CRS84" } },
"features": [
{ "type": "Feature", "properties": { "Shape_Leng": 10097.573962, "Shape_Area": 1910752.46441, "Dusun": "Seneposari" }, "geometry": { "type": "MultiPolygon", "coordinates": [ [ [ [ 114.093550832392168, -8.523932002929332 ], [ 114.094410659414763, -8.52300263343971 ], [ 114.094828558265277, -8.52253263351612 ], [ 114.095357960812109, -8.521956553885218 ], [ 114.096081126562368, -8.521158829362779 ], [ 114.096546137345058, -8.520630071028492 ], [ 114.097373399798869, -8.519613214506258 ], [ 114.097945348874248, -8.518913152227118 ], [ 114.098585123898758, -8.5181339185357 ], [ 114.099166816049546, -8.517414803160067 ], [ 114.100000442649687, -8.516401171156533 ], [ 114.100727700237144, -8.515482353190077 ], [ 114.101393746179383, -8.514614069300563 ], [ 114.102069488367675, -8.513733107450189 ], [ 114.102470502749782, -8.513197484243705 ], [ 114.102664451057876, -8.512950339731606 ], [ 114.102848903588765, -8.512263308015092 ], [ 114.102947724253326, -8.511894344904112 ], [ 114.103187100069192, -8.511140794144834 ], [ 114.103511745557526, -8.510116978100436 ], [ 114.103996020051738, -8.509151717035127 ], [ 114.104106348007363, -8.508954940322431 ], [ 114.104750011548987, -8.508080103847375 ], [ 114.105393670950292, -8.507205264381575 ], [ 114.1059015820545, -8.506501515088649 ], [ 114.106364960903008, -8.505759187572497 ], [ 114.106695412086822, -8.505238966359048 ], [ 114.106897023644308, -8.504822958803672 ], [ 114.107200767168152, -8.50402207385005 ], [ 114.107423042935338, -8.503411807164108 ], [ 114.107638939699427, -8.502798306290293 ], [ 114.10793642040521, -8.501978250328605 ], [ 114.108233802797017, -8.501170942086826 ], [ 114.108469190269645, -8.500519339193197 ], [ 114.108974192771456, -8.500201196972935 ], [ 114.109135041229095, -8.500097218286276 ], [ 114.109196533187955, -8.500008436736332 ], [ 114.10943605004725, -8.499232566325135 ], [ 114.109717516046032, -8.49841238866723 ], [ 114.109970097180707, -8.497601556821085 ], [ 114.110326834244333, -8.496562026780762 ], [ 114.110530248132619, -8.495903809389164 ], [ 114.110559225718632, -8.495881714408849 ], [ 114.110768856239005, -8.496103179858322 ], [ 114.110905098677918, -8.496292230338216 ], [ 114.111006247299997, -8.496465083870945 ], [ 114.111053310425831, -8.496592916607465 ], [ 114.111025027855945, -8.496949661219016 ], [ 114.11099693518419, -8.497280910721576 ], [ 114.111004892189015, -8.497500879092916 ], [ 114.111096317491743, -8.497689596061704 ], [ 114.111200691622955, -8.497859287243811 ], [ 114.111228810007418, -8.497951921925123 ], [ 114.111179694746838, -8.498098163521101 ], [ 114.111090901956047, -8.498228296043312 ], [ 114.111057860635455, -8.49854982585806 ], [ 114.111010728001887, -8.498858623831412 ], [ 114.1109732462387, -8.49916111976135 ], [ 114.110933016621843, -8.499403040415659 ], [ 114.110902509885051, -8.499668904476421 ], [ 114.110772159660442, -8.499663132048765 ], [ 114.110487943164927, -8.499745646943094 ], [ 114.110302732330965, -8.49984317020926 ], [ 114.110094204353686, -8.499952971157899 ], [ 114.110003893399679, -8.500000525130524 ], [ 114.109835707430577, -8.500164647690058 ], [ 114.109740002275188, -8.500336295728841 ], [ 114.109660394625848, -8.500513651003203 ], [ 114.109656606818007, -8.500856454607069 ], [ 114.109706347205091, -8.501158381162671 ], [ 114.109801308577246, -8.501399739339366 ], [ 114.109893776929511, -8.501661586758074 ], [ 114.109980549680387, -8.50195361686915 ], [ 114.109982856156492, -8.502385046677709 ], [ 114.109957727077784, -8.502754678878675 ], [ 114.109922090272732, -8.503028312702373 ], [ 114.109868393725534, -8.503364362734413 ], [ 114.109816742723467, -8.503675933362567 ], [ 114.109794063718354, -8.50395583109545 ], [ 114.109803799163899, -8.504253026408211 ], [ 114.10980045820699, -8.504698974643139 ], [ 114.109741632774188, -8.505161315026387 ], [ 114.109702513297208, -8.505445916570073 ], [ 114.109407590968786, -8.506086443822431 ], [ 114.109274515581461, -8.506242846261681 ], [ 114.109061939836153, -8.506451185229404 ], [ 114.108743355098909, -8.506724238341912 ], [ 114.108584267401739, -8.506837523423798 ], [ 114.108451674786764, -8.506931942346219 ], [ 114.10805433931975, -8.5071519921621 ], [ 114.107810185384594, -8.507311252431297 ], [ 114.107577222837818, -8.507463212079136 ], [ 114.107388860699857, -8.50762604457795 ], [ 114.107205453391032, -8.507896417525259 ], [ 114.107052319747808, -8.508262129793055 ], [ 114.106961127911518, -8.508604853746746 ], [ 114.106934440732715, -8.508757029980616 ], [ 114.106948353044174, -8.509083663035279 ], [ 114.106969465304687, -8.509360650602391 ], [ 114.107046737166996, -8.509610444042448 ], [ 114.107320105907235, -8.510084693683071 ], [ 114.107420393786882, -8.510200408032356 ], [ 114.107560266807184, -8.510361796883641 ], [ 114.107698715910274, -8.510538914562343 ], [ 114.107829435301085, -8.510757441827911 ], [ 114.107840659277485, -8.511019874989904 ], [ 114.10783847840321, -8.511253445179802 ], [ 114.107905250995628, -8.511511099866793 ], [ 114.107998572370064, -8.511715143390886 ], [ 114.108111191035889, -8.51187447287831 ], [ 114.108292276168683, -8.512049662052874 ], [ 114.108449862325628, -8.512199627062582 ], [ 114.108732373722106, -8.51244411472522 ], [ 114.108917334992213, -8.512613795545571 ], [ 114.109084691804611, -8.512771500525428 ], [ 114.109185235374412, -8.5128662437152 ], [ 114.109302157917668, -8.513103203881183 ], [ 114.109312502431465, -8.513483674017625 ], [ 114.109127463829481, -8.513852663833465 ], [ 114.108933866294777, -8.514223072250669 ], [ 114.108816078234057, -8.514487986424667 ], [ 114.108708969188697, -8.514817096901972 ], [ 114.108679645055574, -8.515210398272458 ], [ 114.108611657729298, -8.515485355045168 ], [ 114.108372066094788, -8.515772128228821 ], [ 114.108145418160106, -8.516098362404 ], [ 114.107825209220863, -8.516412096245311 ], [ 114.10761245692855, -8.516599391112946 ], [ 114.107359828151232, -8.51679732375813 ], [ 114.107059254847968, -8.517014366789075 ], [ 114.106798685799319, -8.517194062863929 ], [ 114.106302160739816, -8.517550069171548 ], [ 114.10567222627445, -8.518025041709913 ], [ 114.105452330965008, -8.518190135022175 ], [ 114.105279691289113, -8.51834623371124 ], [ 114.104799582387443, -8.519050977850153 ], [ 114.104579959080425, -8.519511134942137 ], [ 114.104357057957984, -8.51999770496951 ], [ 114.104192530776857, -8.520382268680674 ], [ 114.103972402852193, -8.520920516393183 ], [ 114.103682648756845, -8.521780168744458 ], [ 114.10358218789159, -8.522147289636839 ], [ 114.103508020561662, -8.522425478939478 ], [ 114.103492949636518, -8.522674587385792 ], [ 114.103583392545957, -8.522924484364353 ], [ 114.103772357551989, -8.523211004223663 ], [ 114.10385167180003, -8.523404738377115 ], [ 114.103988299543275, -8.523780239307357 ], [ 114.104128478220176, -8.52412253808434 ], [ 114.104260961616262, -8.524413696461375 ], [ 114.104387719762741, -8.524745791262005 ], [ 114.104454069513565, -8.52492987504513 ], [ 114.104533158176764, -8.525165788284045 ], [ 114.104594947035807, -8.525374413786274 ], [ 114.104656788917268, -8.525599860478685 ], [ 114.104722641813723, -8.52591860443933 ], [ 114.104818737554595, -8.526395524585553 ], [ 114.104888910067871, -8.526719611146863 ], [ 114.104934783445572, -8.526985128276236 ], [ 114.105003973235313, -8.52735245338058 ], [ 114.105069555663661, -8.527722417576268 ], [ 114.105129501600103, -8.528103194319366 ], [ 114.105122938722516, -8.528293837550619 ], [ 114.105076200225085, -8.528602973430157 ], [ 114.104961815821397, -8.52890866268838 ], [ 114.104778210984279, -8.529102361956401 ], [ 114.104524469870739, -8.529309475295861 ], [ 114.104358165406438, -8.529336712770645 ], [ 114.104117650410998, -8.529376104320862 ], [ 114.103932956378713, -8.52942056616531 ], [ 114.103780785931022, -8.529457197892759 ], [ 114.103597189330216, -8.529650906314332 ], [ 114.103497017913, -8.529928817685022 ], [ 114.103541714788022, -8.530270030704576 ], [ 114.103581108150777, -8.530505410996883 ], [ 114.103612135965008, -8.530677089225186 ], [ 114.103630690763353, -8.530779758726924 ], [ 114.103614484686915, -8.531072259707226 ], [ 114.103514111624165, -8.531378022764262 ], [ 114.103315651431359, -8.531683087097983 ], [ 114.103301931787939, -8.531760141987933 ], [ 114.103142590523234, -8.531676585602252 ], [ 114.1029745480636, -8.531554847998045 ], [ 114.102854779298511, -8.531433548838017 ], [ 114.102720155886118, -8.531249683500127 ], [ 114.102589672810169, -8.531071472882347 ], [ 114.10249030121814, -8.5309357540036 ], [ 114.102464817705837, -8.530715161936818 ], [ 114.102490689117175, -8.530413254851572 ], [ 114.102509787468264, -8.529991248158302 ], [ 114.102528767043736, -8.529571847822078 ], [ 114.102455325626039, -8.529426903791263 ], [ 114.102346298968342, -8.529154123911242 ], [ 114.10231064273782, -8.528844234256866 ], [ 114.10228938667295, -8.528594961385183 ], [ 114.102273035021582, -8.52840320064996 ], [ 114.10215331673426, -8.528299522299919 ], [ 114.101965091001716, -8.528182881052288 ], [ 114.10176709732535, -8.528032461122056 ], [ 114.101705141773564, -8.527985391648288 ], [ 114.101566311089911, -8.527792309964463 ], [ 114.101429400358555, -8.527600018660905 ], [ 114.101324278140311, -8.527450779724548 ], [ 114.101262013682742, -8.52736238559204 ], [ 114.101133070415472, -8.527320254861126 ], [ 114.100809764856663, -8.527307755068803 ], [ 114.100574750307288, -8.527293377399365 ], [ 114.100248081826123, -8.527273393398294 ], [ 114.100034295730083, -8.527260314249078 ], [ 114.099957727086661, -8.52725563024998 ], [ 114.099854298027054, -8.527225110929177 ], [ 114.099787907598866, -8.527149926300794 ], [ 114.099655306859702, -8.526750573182058 ], [ 114.09957984895658, -8.526522955048895 ], [ 114.099512215597372, -8.526318939375368 ], [ 114.099462349331887, -8.526168516238481 ], [ 114.09929490661753, -8.525972704335008 ], [ 114.099063921804671, -8.525821356732694 ], [ 114.098862330495493, -8.525762682670036 ], [ 114.098736638917956, -8.525735953662341 ], [ 114.09862859814622, -8.525722657634539 ], [ 114.098428891422074, -8.525698078833607 ], [ 114.098288064234438, -8.525694785808961 ], [ 114.098218750744522, -8.525696362311214 ], [ 114.098148048332163, -8.525669983062411 ], [ 114.098067456161573, -8.525578627556872 ], [ 114.098109870889274, -8.525121738096974 ], [ 114.098138660322718, -8.524775019362771 ], [ 114.098041941668242, -8.524541661903372 ], [ 114.097881203526867, -8.524322496120247 ], [ 114.097801588483762, -8.524232653970211 ], [ 114.097677747694476, -8.524113520191468 ], [ 114.097527869561787, -8.523969336855751 ], [ 114.097409274260698, -8.523851667875798 ], [ 114.097257320207092, -8.523668139711406 ], [ 114.097095158108743, -8.523510864274597 ], [ 114.096910548331579, -8.523448216137682 ], [ 114.096667866289764, -8.523483161971642 ], [ 114.09634836016761, -8.523543176115888 ], [ 114.096122819688361, -8.523583250251965 ], [ 114.095857429039697, -8.523619237039822 ], [ 114.095584618610943, -8.523678876365009 ], [ 114.095461474173234, -8.523700756646885 ], [ 114.095267658748384, -8.52373519282909 ], [ 114.095075265893882, -8.523753229055343 ], [ 114.094957940124004, -8.523764226848987 ], [ 114.094766665240456, -8.523782158356378 ], [ 114.094562346076216, -8.523958553651809 ], [ 114.094424250916219, -8.524089130406963 ], [ 114.094195215871437, -8.52419590130631 ], [ 114.093993924663124, -8.524190644428053 ], [ 114.093775555089351, -8.524097596922688 ], [ 114.093550832392168, -8.523932002929332 ] ] ] ] } },
{ "type": "Feature", "properties": { "Shape_Leng": 10379.589676699999, "Shape_Area": 2803786.5995399999, "Dusun": "Senepolor" }, "geometry": { "type": "MultiPolygon", "coordinates": [ [ [ [ 114.110902509885051, -8.499668904476421 ], [ 114.111065858631065, -8.498471999058628 ], [ 114.111066065195573, -8.498469985048359 ], [ 114.111066175780891, -8.498468911695632 ], [ 114.111066377456368, -8.498466944627232 ], [ 114.111066639730012, -8.498464398912539 ], [ 114.111067067539565, -8.498460228259672 ], [ 114.111067831987256, -8.498452791510076 ], [ 114.111068302768714, -8.498448214634438 ], [ 114.111069249301764, -8.498439003100751 ], [ 114.111070592258201, -8.498425934170026 ], [ 114.11107273196842, -8.498405113433691 ], [ 114.111074896170479, -8.498384051664273 ], [ 114.111076727593954, -8.498366225303693 ], [ 114.11107813607677, -8.498352525364291 ], [ 114.111079855912138, -8.498335784996872 ], [ 114.111080958065983, -8.498325060475947 ], [ 114.111081954496527, -8.498315365979423 ], [ 114.111082851101713, -8.498306641021502 ], [ 114.111084177424985, -8.498293732776741 ], [ 114.11108505348524, -8.498285206420036 ], [ 114.111085681180967, -8.498277732517785 ], [ 114.111086323002212, -8.498272855167443 ], [ 114.111086910279013, -8.498267142646286 ], [ 114.111088014388798, -8.498256399167772 ], [ 114.111088647691176, -8.498250236178588 ], [ 114.111089327053065, -8.498243618204526 ], [ 114.111090091518804, -8.49823617874442 ], [ 114.111090901956047, -8.498228296043312 ], [ 114.111095832854232, -8.49822106910478 ], [ 114.111102403398505, -8.49821144038437 ], [ 114.111106440606747, -8.498205523102641 ], [ 114.111111271492135, -8.498198442679692 ], [ 114.111115845456808, -8.49819173978822 ], [ 114.111122208648666, -8.498182413078924 ], [ 114.111126345861564, -8.498176350184172 ], [ 114.111132322764675, -8.498167589765233 ], [ 114.111136473737403, -8.498161507097045 ], [ 114.111143237883937, -8.498151594329876 ], [ 114.111157224955576, -8.498131095534562 ], [ 114.111171210197156, -8.498110598531484 ], [ 114.111179694746838, -8.498098163521101 ], [ 114.111187740168759, -8.498074207467919 ], [ 114.11119495672672, -8.498052719745541 ], [ 114.11120339566952, -8.498027594868864 ], [ 114.111209038977293, -8.498010790572796 ], [ 114.111215563105759, -8.497991365651675 ], [ 114.111218652068203, -8.497982168214076 ], [ 114.111223870274259, -8.497966629172101 ], [ 114.111228810007418, -8.497951921925123 ], [ 114.111223987814185, -8.497936035510689 ], [ 114.111220327549688, -8.497923977408867 ], [ 114.111216872766079, -8.497912593885143 ], [ 114.11120986575105, -8.497889509915153 ], [ 114.111204781417044, -8.497872759686144 ], [ 114.111200691622955, -8.497859287243811 ], [ 114.111197200440245, -8.497853611297753 ], [ 114.111176733904628, -8.497820336135607 ], [ 114.111149319071274, -8.497775765346733 ], [ 114.111120754861318, -8.497729325870395 ], [ 114.111100264120466, -8.497696012584761 ], [ 114.111077248690606, -8.497650234955897 ], [ 114.111070070857579, -8.497635418779891 ], [ 114.111063313937834, -8.497621471211092 ], [ 114.111056969893099, -8.497608375024726 ], [ 114.111049439063521, -8.497592830776926 ], [ 114.111040101267264, -8.497573556418848 ], [ 114.111030610657508, -8.497553966534047 ], [ 114.111015546333817, -8.497522870791617 ], [ 114.111004892189015, -8.497500879092916 ], [ 114.111004747033704, -8.497496875837152 ], [ 114.111003505064971, -8.497462542744598 ], [ 114.111002317345793, -8.497429689866948 ], [ 114.111001498603883, -8.497407061996229 ], [ 114.11100044382782, -8.497377904215369 ], [ 114.110999478473175, -8.497351225196507 ], [ 114.110998645500203, -8.497328195195484 ], [ 114.110997717788152, -8.49730254816884 ], [ 114.11099693518419, -8.497280910721576 ], [ 114.110999237486539, -8.497253766304025 ], [ 114.111007569846947, -8.497155516415592 ], [ 114.111016801066498, -8.49704666245672 ], [ 114.111023807538018, -8.49696404825737 ], [ 114.111028811959045, -8.496901931487878 ], [ 114.111035364975905, -8.49681927778297 ], [ 114.111042651662089, -8.496727356755688 ], [ 114.111051283104985, -8.496618486590906 ], [ 114.111053310425831, -8.496592916607465 ], [ 114.111041788557998, -8.496561620412306 ], [ 114.111018021742652, -8.496497066737371 ], [ 114.110995674491903, -8.496447015461362 ], [ 114.110967523037473, -8.496398907734982 ], [ 114.110938041028319, -8.496348526145795 ], [ 114.110881125669735, -8.496258966205211 ], [ 114.110829364413803, -8.496187140835916 ], [ 114.110768856239005, -8.496103179858322 ], [ 114.110716668716435, -8.496048046636266 ], [ 114.110610980126197, -8.495936390902623 ], [ 114.110559225718632, -8.495881714408849 ], [ 114.110469890840875, -8.495755862576132 ], [ 114.110384473496694, -8.495619841050981 ], [ 114.110315198654845, -8.495482791114283 ], [ 114.11027033854802, -8.495317239573035 ], [ 114.110230011688756, -8.49516204784857 ], [ 114.110182761756974, -8.495007951180327 ], [ 114.110121631284244, -8.494860636476021 ], [ 114.110064336121738, -8.494745381204238 ], [ 114.109935680722387, -8.494667562600689 ], [ 114.109802867056999, -8.494584699990352 ], [ 114.109660076869005, -8.494489230963138 ], [ 114.109534139111517, -8.494384696492828 ], [ 114.109420914220436, -8.494263547552928 ], [ 114.109294932797155, -8.494164860595276 ], [ 114.109216733740098, -8.494073213779398 ], [ 114.109172025667149, -8.493991840057287 ], [ 114.109147283465276, -8.493884924805677 ], [ 114.109116293657877, -8.493727951368522 ], [ 114.109071068436478, -8.49357752956802 ], [ 114.109034793336306, -8.493397213954431 ], [ 114.108952733862566, -8.493240437698038 ], [ 114.108841338003529, -8.493153559296355 ], [ 114.108748671766804, -8.493130561090648 ], [ 114.108658753189346, -8.493168138013271 ], [ 114.108524258282117, -8.493173513752637 ], [ 114.108348409598022, -8.493143524022505 ], [ 114.108185629025527, -8.493078573005048 ], [ 114.108051515430944, -8.493032957646998 ], [ 114.10789540038617, -8.492932998680581 ], [ 114.107742533634564, -8.492826689248121 ], [ 114.107470413689441, -8.492827855022952 ], [ 114.107346763409168, -8.492667582414784 ], [ 114.107175192478152, -8.492494204661551 ], [ 114.107035441125305, -8.492346560612319 ], [ 114.106930735416498, -8.492221486069564 ], [ 114.106797506355207, -8.492057954974017 ], [ 114.106683293289493, -8.491920062473895 ], [ 114.106581502408233, -8.491833255078145 ], [ 114.106444713905802, -8.491717503030666 ], [ 114.106291919795467, -8.491601632926315 ], [ 114.106167530529973, -8.491540153944008 ], [ 114.106100641013796, -8.491495037718002 ], [ 114.10600532471318, -8.491398717443095 ], [ 114.105914632833688, -8.491314016114806 ], [ 114.105869086178899, -8.491209666587103 ], [ 114.105809555243056, -8.49103712218195 ], [ 114.105765838819551, -8.490890191702276 ], [ 114.105738295331648, -8.49072107140503 ], [ 114.105701172715399, -8.490548693552839 ], [ 114.105663905831221, -8.49039543647252 ], [ 114.105639372490231, -8.490251835850289 ], [ 114.105618397975761, -8.490060455279172 ], [ 114.105600482297177, -8.489888219280861 ], [ 114.105562943772995, -8.489689862263953 ], [ 114.1054462736722, -8.489471814337252 ], [ 114.105377001786138, -8.489317265156497 ], [ 114.10530206386764, -8.489176872055562 ], [ 114.105221357626547, -8.489025670911781 ], [ 114.105159376831239, -8.488944753329431 ], [ 114.105132327403652, -8.488797864576149 ], [ 114.105129353018881, -8.488669910687062 ], [ 114.105155244290998, -8.488539560421348 ], [ 114.105181330358661, -8.488383103600832 ], [ 114.105164069894641, -8.488236767316215 ], [ 114.105156937703441, -8.48813880685446 ], [ 114.10514091624141, -8.48801203164096 ], [ 114.105108551339157, -8.487946549611905 ], [ 114.105021472783832, -8.48781525505763 ], [ 114.104957347677427, -8.487749611998181 ], [ 114.104858691816901, -8.487632629239299 ], [ 114.104731603608784, -8.487504202031332 ], [ 114.104642092678432, -8.487487601356634 ], [ 114.104430845712457, -8.487482844079812 ], [ 114.104282997553995, -8.48756142244266 ], [ 114.104163720966255, -8.48767208310124 ], [ 114.103993012322263, -8.487811045897013 ], [ 114.10380292854839, -8.487972173613997 ], [ 114.103732026789572, -8.488035388266219 ], [ 114.103655081035413, -8.488050750734018 ], [ 114.10351707638533, -8.488097530986577 ], [ 114.103414498266886, -8.488115890987881 ], [ 114.103321666538434, -8.488115200725961 ], [ 114.103203728480835, -8.488047394742361 ], [ 114.103097000742522, -8.487979626024311 ], [ 114.10305425768793, -8.487915613420611 ], [ 114.103013648010219, -8.487781454341079 ], [ 114.102930629171894, -8.487569507988924 ], [ 114.102865654876055, -8.487470888977361 ], [ 114.102754530189557, -8.487330150808948 ], [ 114.10266533038434, -8.487272120280467 ], [ 114.102518415694121, -8.487226408676795 ], [ 114.102301149374469, -8.487170611993642 ], [ 114.102182805274083, -8.487156983626873 ], [ 114.10200065467258, -8.487114197044789 ], [ 114.101930518287801, -8.487075429977862 ], [ 114.101831882331027, -8.486995020085201 ], [ 114.101753267235694, -8.486806397558086 ], [ 114.101703821085394, -8.486637216782997 ], [ 114.101649473496437, -8.486560221512198 ], [ 114.101694148561663, -8.486152609359015 ], [ 114.101705449463736, -8.485926411231528 ], [ 114.101674914378904, -8.485664108447569 ], [ 114.101643748634913, -8.485616806679046 ], [ 114.101440507286341, -8.485398573676767 ], [ 114.101335446267782, -8.485321303299081 ], [ 114.101242998065558, -8.485269622120775 ], [ 114.101134831558014, -8.485179579562518 ], [ 114.101020215670786, -8.485095863537264 ], [ 114.100969094074699, -8.485082734187456 ], [ 114.100927360951076, -8.485098359129756 ], [ 114.100827937192619, -8.485123116660215 ], [ 114.100734986789774, -8.485138360537817 ], [ 114.100671156806754, -8.485112388459948 ], [ 114.100569034177653, -8.485070196971684 ], [ 114.10046048606516, -8.485031144915878 ], [ 114.100368014181711, -8.484982650674082 ], [ 114.100237106163448, -8.484937057677667 ], [ 114.100083981781253, -8.484865803058204 ], [ 114.099956299036961, -8.484817046731694 ], [ 114.099851047159632, -8.484765270041779 ], [ 114.099772172407214, -8.484755210724188 ], [ 114.099737037110586, -8.484708131413919 ], [ 114.099670937791728, -8.484619560759171 ], [ 114.099609466121066, -8.484537191273631 ], [ 114.09953610533195, -8.484501587264312 ], [ 114.09944036070894, -8.484462630297289 ], [ 114.099337879515261, -8.484468241167621 ], [ 114.09922254640901, -8.484480130865657 ], [ 114.099084638002182, -8.484514162382759 ], [ 114.09900124368167, -8.484535850612511 ], [ 114.098856694335751, -8.484601703358202 ], [ 114.098712239799625, -8.484654807715687 ], [ 114.098599964291637, -8.484685842597223 ], [ 114.098507133784565, -8.484685151466202 ], [ 114.098334110168182, -8.48470617311275 ], [ 114.098225274390828, -8.484705362742638 ], [ 114.098097376659879, -8.484685287779815 ], [ 114.097990803913973, -8.484658043060573 ], [ 114.097953028113011, -8.484614124930481 ], [ 114.097884031745082, -8.484533907209846 ], [ 114.097888094922197, -8.484419203559614 ], [ 114.097911267910987, -8.484317390319909 ], [ 114.098070082481698, -8.484057233395827 ], [ 114.098235178658513, -8.483813059375159 ], [ 114.098268386037361, -8.483653953802365 ], [ 114.098282267222586, -8.483510638806036 ], [ 114.098353479622034, -8.483405995864995 ], [ 114.098359702864499, -8.483347023768536 ], [ 114.098319105682492, -8.483294193266971 ], [ 114.098229716126951, -8.483261657054607 ], [ 114.098136982648029, -8.483248218555334 ], [ 114.098002443552232, -8.483259965011111 ], [ 114.097855124408284, -8.483268429007856 ], [ 114.097659502315437, -8.483314778509287 ], [ 114.0974481383643, -8.483325952697765 ], [ 114.097370906446372, -8.483379558143701 ], [ 114.09725858348159, -8.483416965972705 ], [ 114.09708840170299, -8.483485813555367 ], [ 114.096931144521534, -8.483538822860211 ], [ 114.096850807089282, -8.48357965602958 ], [ 114.096763660956881, -8.483674618109978 ], [ 114.096644121099814, -8.483820333050275 ], [ 114.096594764118379, -8.483998439646662 ], [ 114.096542181874497, -8.484179710346506 ], [ 114.096419824686265, -8.484274410860809 ], [ 114.096234044457987, -8.48428896205604 ], [ 114.096166918995962, -8.484275713825003 ], [ 114.096057654188954, -8.484234002086005 ], [ 114.096013915924686, -8.484188522591577 ], [ 114.095980755695081, -8.484082309428532 ], [ 114.095917989064446, -8.484016742549663 ], [ 114.095852460157388, -8.483948290355571 ], [ 114.09578220543402, -8.483925457923425 ], [ 114.095686533508925, -8.483876938999272 ], [ 114.0955392862503, -8.483875841719424 ], [ 114.095363181883997, -8.483880903818639 ], [ 114.095193503044513, -8.483882826479702 ], [ 114.095068639543484, -8.483885082190072 ], [ 114.09488613279369, -8.483890096350056 ], [ 114.094834580424958, -8.483934330810817 ], [ 114.094727819951515, -8.484083326494078 ], [ 114.094672300230897, -8.48422951686152 ], [ 114.094594228957959, -8.484394661650638 ], [ 114.094583499594066, -8.484544373132749 ], [ 114.094575658903935, -8.484735537618008 ], [ 114.094577973204792, -8.484853475698921 ], [ 114.094625173921756, -8.484962186695283 ], [ 114.094694805430635, -8.485067878582297 ], [ 114.094726168726865, -8.485154162601297 ], [ 114.094738037881626, -8.485278546420892 ], [ 114.094714792056095, -8.485389920365028 ], [ 114.094665817375315, -8.485517036892693 ], [ 114.094578933973438, -8.485576943133021 ], [ 114.094517634646081, -8.485640227351951 ], [ 114.094437608283471, -8.485639630645309 ], [ 114.094248867060927, -8.485622287939597 ], [ 114.094114663130796, -8.48558941653795 ], [ 114.093980651061258, -8.485531050391037 ], [ 114.093835460505687, -8.485476531595229 ], [ 114.093776552176038, -8.485427542823317 ], [ 114.093719629042809, -8.485334693680201 ], [ 114.093720324450658, -8.4852422742598 ], [ 114.093769490263313, -8.4850896623302 ], [ 114.093783181469291, -8.484971843689252 ], [ 114.093760041787746, -8.484902047761894 ], [ 114.093707220659482, -8.48485654370063 ], [ 114.093563365441497, -8.48482997471797 ], [ 114.093425745759475, -8.484825761079641 ], [ 114.093233659106986, -8.484827515617066 ], [ 114.093124201136362, -8.484909562006743 ], [ 114.093030339701357, -8.485045905071157 ], [ 114.092984757727123, -8.485147550412741 ], [ 114.092904275842656, -8.485207503974694 ], [ 114.092788535178002, -8.485273568044724 ], [ 114.092599362671336, -8.485313588998904 ], [ 114.092439215308644, -8.485325142170307 ], [ 114.092333797074801, -8.485295672253873 ], [ 114.092167775123897, -8.48523706675809 ], [ 114.092069455200559, -8.485115225274614 ], [ 114.091977560868798, -8.484990244497926 ], [ 114.091917844946195, -8.48484319498918 ], [ 114.091947925742076, -8.484674505805938 ], [ 114.091980799843554, -8.48456001778411 ], [ 114.092064745844823, -8.484465033356058 ], [ 114.09212903049945, -8.48443045520342 ], [ 114.092302029398937, -8.484412623447867 ], [ 114.09237281241856, -8.484365346580205 ], [ 114.092494978313098, -8.484296142357479 ], [ 114.092647081530714, -8.4840773710908 ], [ 114.092648232797188, -8.483924401214228 ], [ 114.092633450823129, -8.483761751667178 ], [ 114.092561416274947, -8.483605791228257 ], [ 114.092459830065621, -8.483516817911086 ], [ 114.092339110877532, -8.483411085387713 ], [ 114.092230256143196, -8.483315744776071 ], [ 114.092002743963036, -8.483345918002165 ], [ 114.091906185357715, -8.483415312298124 ], [ 114.091661709261473, -8.483572840976558 ], [ 114.091472032960695, -8.483679784404634 ], [ 114.091192345061273, -8.483837049900369 ], [ 114.091178571528658, -8.483540552261916 ], [ 114.091154729373912, -8.482880656308289 ], [ 114.091134160089382, -8.482211223982347 ], [ 114.091104168256123, -8.48109234912962 ], [ 114.091094938689182, -8.480617411054046 ], [ 114.091062236093904, -8.479858651043282 ], [ 114.091053533748564, -8.479313602234063 ], [ 114.091033250515636, -8.478605927946937 ], [ 114.091182389668518, -8.478355264076281 ], [ 114.09140606200198, -8.477984048170956 ], [ 114.091571373319439, -8.477711194831699 ], [ 114.091762795259797, -8.477371608553346 ], [ 114.091899105586606, -8.477124035667735 ], [ 114.092064511919702, -8.47683843543332 ], [ 114.092065830202387, -8.476663157061916 ], [ 114.092073248727445, -8.476456177350046 ], [ 114.09196911747479, -8.476327796788194 ], [ 114.091898453338942, -8.476188666673453 ], [ 114.091783567184848, -8.476046711659668 ], [ 114.091688465613046, -8.475929202310377 ], [ 114.091601276625099, -8.475821470854569 ], [ 114.091517055455199, -8.475717404981955 ], [ 114.091443007951028, -8.475625911854001 ], [ 114.091472704239621, -8.475508212701641 ], [ 114.091662398815842, -8.475398080815015 ], [ 114.091951801699949, -8.475224949977447 ], [ 114.092215526058936, -8.4750611900742 ], [ 114.092540163225763, -8.474885134894365 ], [ 114.092758905343302, -8.474743347225871 ], [ 114.092886201078002, -8.47484309480944 ], [ 114.093061294813822, -8.474971880978998 ], [ 114.093414683812412, -8.475229477950503 ], [ 114.093755317546041, -8.475480605245096 ], [ 114.094038669939721, -8.475686686986407 ], [ 114.094280601959809, -8.475866963945659 ], [ 114.09464037022525, -8.476127795094847 ], [ 114.095022546255862, -8.476388792038156 ], [ 114.095178556101772, -8.476501501159577 ], [ 114.095455627545135, -8.476691600245212 ], [ 114.095723120636336, -8.476878441558796 ], [ 114.095907891761087, -8.476997738262554 ], [ 114.096105370137892, -8.47712987761599 ], [ 114.09629319909422, -8.477268319577764 ], [ 114.09648117089877, -8.477387639954442 ], [ 114.096653137870703, -8.477506841140537 ], [ 114.096850522013284, -8.477651727684309 ], [ 114.097111757837979, -8.477819399287768 ], [ 114.097321922236134, -8.477967568076537 ], [ 114.097560823862594, -8.478125511525956 ], [ 114.097802711557975, -8.478312161497696 ], [ 114.098089292883529, -8.478515078430952 ], [ 114.098449235142155, -8.47875359909118 ], [ 114.098713482435031, -8.478946789640293 ], [ 114.098936404245478, -8.479101426477957 ], [ 114.099251725007363, -8.479314118516694 ], [ 114.099777140016059, -8.479684538830957 ], [ 114.100251675224698, -8.48000996234587 ], [ 114.100579658125838, -8.480241869710687 ], [ 114.100964996678101, -8.480509261468281 ], [ 114.101222940816484, -8.48068965518536 ], [ 114.101363283201579, -8.480757627503611 ], [ 114.101532292278065, -8.480844934678165 ], [ 114.101637615352985, -8.48088714937907 ], [ 114.101758823228266, -8.480945417561227 ], [ 114.101966531216746, -8.480994767805809 ], [ 114.102247934511894, -8.481035103905457 ], [ 114.102513381428622, -8.481068947605516 ], [ 114.102813966590688, -8.481112613155441 ], [ 114.103044273767892, -8.481136634495797 ], [ 114.103351643836831, -8.481129357392202 ], [ 114.103540552952339, -8.481124386351032 ], [ 114.104148915732708, -8.481106595554966 ], [ 114.104593954526663, -8.481097152712572 ], [ 114.104984528467057, -8.481093679474844 ], [ 114.105361748574509, -8.481163408587166 ], [ 114.105751773857321, -8.48123323334228 ], [ 114.106282549158834, -8.481316849773181 ], [ 114.106749352465656, -8.481393617155165 ], [ 114.107046595970615, -8.481456377638525 ], [ 114.107430172222138, -8.481532526704642 ], [ 114.108184616884742, -8.481671981359746 ], [ 114.108549035982065, -8.48174161369591 ], [ 114.109025348600909, -8.481831197419734 ], [ 114.109565539017041, -8.481940377064994 ], [ 114.109961945891371, -8.482013431794529 ], [ 114.110399846526548, -8.482102729276313 ], [ 114.110652467896514, -8.482139660104338 ], [ 114.110841067919253, -8.482176116302893 ], [ 114.11115434290285, -8.482235805580435 ], [ 114.11148364726732, -8.482292426121136 ], [ 114.111787319746597, -8.482352043797571 ], [ 114.112164544458011, -8.482421768039545 ], [ 114.1128423373994, -8.482538336742689 ], [ 114.113101313808968, -8.482581686902202 ], [ 114.113433796740566, -8.482641517717648 ], [ 114.113814176210823, -8.48271763759791 ], [ 114.114066727626891, -8.48276412691366 ], [ 114.114440586902333, -8.482856133577139 ], [ 114.114948558551632, -8.482993751178466 ], [ 114.115172229483576, -8.483049588018886 ], [ 114.115498120820178, -8.483134864219506 ], [ 114.116271331406068, -8.483334999157822 ], [ 114.116552479667376, -8.483410382587628 ], [ 114.116801736021188, -8.483469594319251 ], [ 114.117103424286924, -8.483539058295021 ], [ 114.117048632620865, -8.483762227887164 ], [ 114.117000752423351, -8.483957245256267 ], [ 114.116941096882641, -8.484206039871955 ], [ 114.116893292836821, -8.484406392513186 ], [ 114.116849094254306, -8.484591633911906 ], [ 114.116773730205423, -8.484855299235042 ], [ 114.116695224582301, -8.485116268011017 ], [ 114.116600000725271, -8.485432811354086 ], [ 114.11653126540817, -8.485661303503329 ], [ 114.11641942404421, -8.486098401308398 ], [ 114.116354467315446, -8.486379352814366 ], [ 114.116307535074824, -8.486582288215805 ], [ 114.11626049999127, -8.486809921722097 ], [ 114.11617409785805, -8.487228078284081 ], [ 114.116118561846221, -8.487496854255053 ], [ 114.116064013272165, -8.487805932303514 ], [ 114.116006382617343, -8.488144681444428 ], [ 114.115962053740489, -8.48840524587904 ], [ 114.11592813195665, -8.488604634764801 ], [ 114.115861025555873, -8.488852471017097 ], [ 114.115796489037237, -8.489090818556823 ], [ 114.115688423062608, -8.489489924405669 ], [ 114.115605835234334, -8.489831971179617 ], [ 114.115563132365494, -8.490012654420205 ], [ 114.115515099296431, -8.490215889334157 ], [ 114.115450031464491, -8.490508969732879 ], [ 114.115412591793998, -8.490693999440408 ], [ 114.115399290100683, -8.490824800669216 ], [ 114.115388341361736, -8.491005880735933 ], [ 114.115379185007939, -8.491157308150729 ], [ 114.115345818927423, -8.491407755525655 ], [ 114.11530887305436, -8.491651007647576 ], [ 114.115237108178235, -8.4919307506082 ], [ 114.115077816021198, -8.492235456363854 ], [ 114.114949370623151, -8.492499418200891 ], [ 114.114825430020048, -8.492822440676726 ], [ 114.114688685782852, -8.4931788302702 ], [ 114.114501963399135, -8.493642626590368 ], [ 114.114321468532907, -8.494100695013516 ], [ 114.114206674744551, -8.494418126560939 ], [ 114.114198691449843, -8.494487809370515 ], [ 114.114178180463853, -8.494666818080276 ], [ 114.114150041378792, -8.494912414359401 ], [ 114.114117433430408, -8.495197005609551 ], [ 114.114072597435552, -8.495588316735985 ], [ 114.114032794102144, -8.495935710627062 ], [ 114.113916424058047, -8.4963297453751 ], [ 114.113834807673086, -8.496442574616477 ], [ 114.113672879577848, -8.496666428591348 ], [ 114.113488528924591, -8.496957774763771 ], [ 114.113299815853495, -8.49725601497698 ], [ 114.113271366815681, -8.497353830396591 ], [ 114.113097591606575, -8.498017413574557 ], [ 114.113011044718476, -8.498395286913688 ], [ 114.112985741385316, -8.498437134761431 ], [ 114.112794309448873, -8.498671560445048 ], [ 114.11263387033857, -8.498873862410459 ], [ 114.112440276112451, -8.499123828745331 ], [ 114.112248455302037, -8.499434317802528 ], [ 114.112162643728652, -8.499532417311068 ], [ 114.112083393865973, -8.499584139284847 ], [ 114.111949674281874, -8.499657574589543 ], [ 114.111735824971007, -8.499726694649182 ], [ 114.111654196542915, -8.499720144991592 ], [ 114.111340222151298, -8.49969495266626 ], [ 114.111090360556474, -8.499677222373565 ], [ 114.110902509885051, -8.499668904476421 ] ] ] ] } },
{ "type": "Feature", "properties": { "Shape_Leng": 11226.218619400001, "Shape_Area": 4388237.5831500003, "Dusun": "Krajan" }, "geometry": { "type": "MultiPolygon", "coordinates": [ [ [ [ 114.109467030648858, -8.464375181154772 ], [ 114.110525373601945, -8.464414678174718 ], [ 114.110967480145277, -8.464367240672098 ], [ 114.111251639336075, -8.464295739953396 ], [ 114.112312518601755, -8.464005317010232 ], [ 114.112637345234603, -8.46373726495306 ], [ 114.112960564180284, -8.463688941600385 ], [ 114.113231766077774, -8.463775463357383 ], [ 114.113671243222697, -8.464082974874209 ], [ 114.113780102033886, -8.464242511753588 ], [ 114.113896345401301, -8.464412871168641 ], [ 114.114007406163864, -8.4645756351016 ], [ 114.114112353442067, -8.464906707993459 ], [ 114.114175885510591, -8.465107131687599 ], [ 114.11421995133567, -8.465206978181243 ], [ 114.114329054359573, -8.465408437835091 ], [ 114.114474932753794, -8.465677803573799 ], [ 114.114581499715811, -8.465857481776908 ], [ 114.114676311217792, -8.466017337703811 ], [ 114.114878943942543, -8.466187881829178 ], [ 114.115151972637079, -8.466252542591064 ], [ 114.115403708651982, -8.466295980626443 ], [ 114.115796093314444, -8.466357392982919 ], [ 114.11623000930652, -8.466424627109626 ], [ 114.116461596013394, -8.466460510320914 ], [ 114.116702339920295, -8.466569057169629 ], [ 114.116768451518183, -8.466762763111948 ], [ 114.116807407365528, -8.466876902996459 ], [ 114.116891000343628, -8.466998948620498 ], [ 114.116950747467911, -8.467086179712396 ], [ 114.117046366265825, -8.467225781973722 ], [ 114.117077473031529, -8.467307530094576 ], [ 114.117148115645961, -8.467493177481904 ], [ 114.117256815775548, -8.467801397112829 ], [ 114.117376189991916, -8.467989221091617 ], [ 114.117442386428536, -8.468109814767768 ], [ 114.117884922059005, -8.468153146965467 ], [ 114.118032025930788, -8.468220971145392 ], [ 114.118177240397543, -8.468311983299984 ], [ 114.11840976758954, -8.468457719316755 ], [ 114.118645133734191, -8.468605233379321 ], [ 114.118884016225024, -8.468754951483243 ], [ 114.119169226289188, -8.468925699968464 ], [ 114.119511913009092, -8.46912594579479 ], [ 114.119804836332918, -8.46929711227502 ], [ 114.120165446908018, -8.469494205989545 ], [ 114.120597532251608, -8.46972177281882 ], [ 114.120726065875033, -8.469825632876242 ], [ 114.120844565834688, -8.469921383763818 ], [ 114.120982964695031, -8.470033213462393 ], [ 114.121192677923901, -8.470195097170341 ], [ 114.121358127842072, -8.470319017305295 ], [ 114.121599846800578, -8.470500062079406 ], [ 114.121838506914528, -8.470678814792056 ], [ 114.121964151007901, -8.470794034823951 ], [ 114.122112190837314, -8.470929791531175 ], [ 114.122388070619238, -8.471182781876669 ], [ 114.122481912545396, -8.471353054949152 ], [ 114.122588792415769, -8.471546986656815 ], [ 114.122712221780986, -8.47177094772001 ], [ 114.12274755243422, -8.471865714820428 ], [ 114.122798461250497, -8.472002268659956 ], [ 114.122874554950897, -8.472206375595034 ], [ 114.122973743596972, -8.472480136075918 ], [ 114.123050797915042, -8.472695895409206 ], [ 114.123071033805019, -8.472890086441584 ], [ 114.123088129142019, -8.473124777056876 ], [ 114.123099579220423, -8.473474048633205 ], [ 114.123032218450334, -8.473680830094523 ], [ 114.122987904271028, -8.473816867125324 ], [ 114.122901152008694, -8.473961631009718 ], [ 114.122794618135558, -8.474139405992704 ], [ 114.122695166511676, -8.47430536199138 ], [ 114.122630840521623, -8.474435069129012 ], [ 114.12252735853086, -8.474660218240398 ], [ 114.12242345502068, -8.47488223918984 ], [ 114.12230565711144, -8.475096051962131 ], [ 114.122083349322779, -8.475182615478499 ], [ 114.12191915001506, -8.47524655184011 ], [ 114.121728318534409, -8.475320858211758 ], [ 114.121506608352263, -8.475404159804317 ], [ 114.121284513588535, -8.475486455588428 ], [ 114.121174372414174, -8.475630335156541 ], [ 114.121045203820941, -8.475882618307411 ], [ 114.120895722846626, -8.476424134166852 ], [ 114.120882441312077, -8.476774423269825 ], [ 114.120873097144852, -8.477020869948229 ], [ 114.120781414768302, -8.477499633191702 ], [ 114.120703739393363, -8.477905255607523 ], [ 114.120601380147193, -8.478105172552835 ], [ 114.120477306698163, -8.478347496217864 ], [ 114.120388739367726, -8.478520475982577 ], [ 114.120304212083681, -8.478561745885791 ], [ 114.120162746729235, -8.478630814975741 ], [ 114.120060224871821, -8.478680870627716 ], [ 114.11996064126231, -8.478727394738101 ], [ 114.119879467170847, -8.478753645305147 ], [ 114.119745800390703, -8.478796870349994 ], [ 114.119596095977059, -8.478845281845588 ], [ 114.11944930871384, -8.478892749951818 ], [ 114.119351066359727, -8.478924519864819 ], [ 114.11927385956929, -8.478962209944671 ], [ 114.119086966872302, -8.47905344476383 ], [ 114.118935661586804, -8.47912730737513 ], [ 114.118837107404403, -8.479223911485391 ], [ 114.118727174291749, -8.479331668375474 ], [ 114.118567429631128, -8.479498783080208 ], [ 114.118393813125351, -8.479685946224071 ], [ 114.118272626615422, -8.479816588603031 ], [ 114.118153564160551, -8.479944941055775 ], [ 114.118050060188068, -8.480206834535315 ], [ 114.117964583006298, -8.480423116804008 ], [ 114.117889925060283, -8.480612021888936 ], [ 114.117869276717954, -8.480742651887468 ], [ 114.117846990228031, -8.480883650204035 ], [ 114.117791982238188, -8.481001675367697 ], [ 114.117694664425315, -8.481087524583668 ], [ 114.117627254177535, -8.481130513820103 ], [ 114.117465866816744, -8.481221935041521 ], [ 114.117348715970166, -8.481277487266135 ], [ 114.117150906298534, -8.481341467402338 ], [ 114.1170850026746, -8.481470159928072 ], [ 114.117083496627316, -8.481670689787126 ], [ 114.117081140702439, -8.481986950149462 ], [ 114.117130391307967, -8.482358117857309 ], [ 114.117180885586748, -8.482752933969625 ], [ 114.117203940566242, -8.482935291366537 ], [ 114.117161967202037, -8.483225412464414 ], [ 114.117103424286924, -8.483539058295021 ], [ 114.10469292831192, -8.481096341974846 ], [ 114.104510686605835, -8.481098919347227 ], [ 114.10433181505654, -8.481102715084072 ], [ 114.104148915732708, -8.481106595554966 ], [ 114.103921770449233, -8.481113237875485 ], [ 114.103649387298788, -8.481121203577677 ], [ 114.103540552952339, -8.481124386351032 ], [ 114.103351643836831, -8.481129357392202 ], [ 114.103175318560105, -8.481133531970848 ], [ 114.103003079767873, -8.481132337991601 ], [ 114.102898203370017, -8.481121398812464 ], [ 114.102761059544264, -8.481104927584578 ], [ 114.102634249621829, -8.481086505833694 ], [ 114.102479084469635, -8.481064574925343 ], [ 114.10231200830512, -8.481043272749943 ], [ 114.102172161510623, -8.481024242631763 ], [ 114.102067277832148, -8.481009208892276 ], [ 114.101966531216746, -8.480994767805809 ], [ 114.101819233589708, -8.480959771160142 ], [ 114.101758823228266, -8.480945417561227 ], [ 114.101740260713768, -8.480936493816904 ], [ 114.101718912464079, -8.480926231274227 ], [ 114.101701424999106, -8.480917825048977 ], [ 114.101678734977966, -8.48090691652291 ], [ 114.101647249233082, -8.480891780555268 ], [ 114.101624076434831, -8.480881723073015 ], [ 114.101581818557591, -8.480864785104187 ], [ 114.101540051932872, -8.480848045019213 ], [ 114.101516091269716, -8.480836566016812 ], [ 114.101474191751777, -8.480814921177782 ], [ 114.10143802582121, -8.480796237909603 ], [ 114.101370274134922, -8.480761238950222 ], [ 114.101317450539824, -8.480735429429014 ], [ 114.101270172170985, -8.480712530389935 ], [ 114.101222940816484, -8.48068965518536 ], [ 114.101208256780268, -8.480679385255234 ], [ 114.101159185707544, -8.480645068114022 ], [ 114.101100273539842, -8.480603867826382 ], [ 114.101070147212894, -8.480582799243363 ], [ 114.101054038743854, -8.480571533088893 ], [ 114.101033682221271, -8.480557296526488 ], [ 114.101013597403423, -8.480543250798272 ], [ 114.100991662088205, -8.480527909358788 ], [ 114.100962587307365, -8.480507589393437 ], [ 114.100926442212113, -8.480482508236053 ], [ 114.10089173697493, -8.480458425219883 ], [ 114.100889147959336, -8.48045662894406 ], [ 114.100886747615618, -8.480454963259996 ], [ 114.100884549479829, -8.480453438205991 ], [ 114.100882436203392, -8.480451971601772 ], [ 114.10087620469649, -8.480447647578259 ], [ 114.10087164142179, -8.480444481494198 ], [ 114.100868112676665, -8.480442032286302 ], [ 114.100862893123704, -8.480438410516305 ], [ 114.100856994723316, -8.480434317534462 ], [ 114.100853328755747, -8.480431774254033 ], [ 114.100850578154365, -8.480429865656037 ], [ 114.100846859837134, -8.480427284946124 ], [ 114.10084006954753, -8.480422572814364 ], [ 114.100836219424934, -8.480419901685865 ], [ 114.100832658184316, -8.480417429650698 ], [ 114.100828534537484, -8.480414568577192 ], [ 114.10082442172498, -8.480411714811575 ], [ 114.100818427638714, -8.480407555168352 ], [ 114.100814756261371, -8.480405007330377 ], [ 114.100811193206326, -8.480402535281613 ], [ 114.100807679806081, -8.480400097028559 ], [ 114.100802870994556, -8.480396760178982 ], [ 114.100799528206878, -8.480394440638955 ], [ 114.100793575643493, -8.480390310213677 ], [ 114.100788946477749, -8.480387097564764 ], [ 114.100783812686345, -8.480383535154118 ], [ 114.100778803468657, -8.480380059494532 ], [ 114.100775189865558, -8.480377551836378 ], [ 114.100771225097247, -8.480374801257621 ], [ 114.100766225813501, -8.480371331995736 ], [ 114.100760087294503, -8.480367071901972 ], [ 114.100754985999686, -8.480363532318218 ], [ 114.100748515275669, -8.480359042092587 ], [ 114.100742956301616, -8.48035518471578 ], [ 114.100739683930613, -8.480352913580276 ], [ 114.100732662542569, -8.480348041630757 ], [ 114.100725371246412, -8.480342981569896 ], [ 114.100719860112875, -8.480339157975132 ], [ 114.10071380915609, -8.48033495906113 ], [ 114.100706688472854, -8.480330017713172 ], [ 114.100700057965227, -8.480325416985282 ], [ 114.100693907706244, -8.480321149576293 ], [ 114.100688125764549, -8.480317136959872 ], [ 114.100682201190068, -8.480313025713562 ], [ 114.100674104660072, -8.480307407675596 ], [ 114.100669752629898, -8.480304387708056 ], [ 114.10066831372643, -8.480303384151131 ], [ 114.100534059738479, -8.480209628206836 ], [ 114.100424631579628, -8.480132255149655 ], [ 114.100280042288759, -8.480030019602879 ], [ 114.100200711665877, -8.479975013126385 ], [ 114.100100598262713, -8.47990635771751 ], [ 114.099962663097074, -8.479811765728678 ], [ 114.099809764510297, -8.479706911613373 ], [ 114.09959911940841, -8.479559033590823 ], [ 114.099427083461563, -8.479437747517029 ], [ 114.09931196655188, -8.479356589113928 ], [ 114.099130429060281, -8.479232301602657 ], [ 114.098936404245478, -8.479101426477957 ], [ 114.098754551592535, -8.478975279098131 ], [ 114.098649863104484, -8.47890027817159 ], [ 114.098480189693333, -8.478776229631761 ], [ 114.098310153843016, -8.478661434768114 ], [ 114.098150329717171, -8.478555525066424 ], [ 114.098014871060997, -8.478462383943109 ], [ 114.097872253754275, -8.478361402070247 ], [ 114.097689373134742, -8.478224704798667 ], [ 114.097560823862594, -8.478125511525956 ], [ 114.097444017712974, -8.478048288181459 ], [ 114.097321922236134, -8.477967568076537 ], [ 114.097160906362788, -8.477854049741428 ], [ 114.097022930873024, -8.47776238665749 ], [ 114.096850522013284, -8.477651727684309 ], [ 114.096728815475984, -8.477562390877372 ], [ 114.096533951658174, -8.47742422550459 ], [ 114.096343003626174, -8.477299934978436 ], [ 114.096247322031431, -8.477234505589246 ], [ 114.096105370137892, -8.47712987761599 ], [ 114.095907891761087, -8.476997738262554 ], [ 114.095723120636336, -8.476878441558796 ], [ 114.095494339616735, -8.476718640427945 ], [ 114.095219710964315, -8.476529737601112 ], [ 114.094890513306382, -8.476298623668988 ], [ 114.094576070381422, -8.476081177920866 ], [ 114.094135082862806, -8.475758529133602 ], [ 114.093712803386609, -8.475449262594406 ], [ 114.093167952928425, -8.475049627505101 ], [ 114.092758905343302, -8.474743347225871 ], [ 114.092550294608856, -8.474626089917978 ], [ 114.092560792135743, -8.474573373602437 ], [ 114.09271135410998, -8.474363316439749 ], [ 114.092920538915706, -8.474080788695749 ], [ 114.093071157137572, -8.473863189987187 ], [ 114.093219232031146, -8.473648085512291 ], [ 114.093374975746656, -8.473420468856467 ], [ 114.09359989501678, -8.473060122818918 ], [ 114.093753320819218, -8.472804833287649 ], [ 114.093983321836518, -8.47277637840123 ], [ 114.094228490862463, -8.472745521204043 ], [ 114.094529286086583, -8.472705022086821 ], [ 114.094860342690794, -8.472669776398844 ], [ 114.095266922917176, -8.472665260294685 ], [ 114.095607891506688, -8.472655227953162 ], [ 114.09597409014934, -8.472647897261149 ], [ 114.096284683362867, -8.472647694197537 ], [ 114.096524689989934, -8.472631881388626 ], [ 114.096787270315716, -8.472636349112948 ], [ 114.097039826439655, -8.47263068616744 ], [ 114.097522270805158, -8.472611647656324 ], [ 114.097888469980887, -8.472604315138723 ], [ 114.098264732194309, -8.472602084612864 ], [ 114.098651151737798, -8.472592387506502 ], [ 114.098941620644382, -8.472581976745072 ], [ 114.099148896627185, -8.472553348795014 ], [ 114.099502754968682, -8.472508212511091 ], [ 114.099989511608513, -8.472424476565989 ], [ 114.100618847815653, -8.472355498677567 ], [ 114.101726470872052, -8.472295954099145 ], [ 114.101840265643858, -8.472274173011899 ], [ 114.102019691405587, -8.47225539255721 ], [ 114.102173867306888, -8.47223642543308 ], [ 114.10237875008221, -8.472190179219561 ], [ 114.102560908137917, -8.472143765074859 ], [ 114.102806267066853, -8.472087763123687 ], [ 114.102948156904503, -8.47202345029242 ], [ 114.103130672564717, -8.471929271001715 ], [ 114.103315580654467, -8.471852707997142 ], [ 114.103487921140186, -8.471768508946193 ], [ 114.103658244552179, -8.471616415349747 ], [ 114.103854099963371, -8.471426800462128 ], [ 114.104057624770988, -8.471224671200298 ], [ 114.104309481333189, -8.470975134593569 ], [ 114.104526043547395, -8.470717792331991 ], [ 114.104716942711946, -8.470515569731411 ], [ 114.10490802886271, -8.470288207012576 ], [ 114.105083815165017, -8.47008084356033 ], [ 114.105188806406034, -8.469885525218002 ], [ 114.105286128916561, -8.469702721075222 ], [ 114.105421665341581, -8.469474945957545 ], [ 114.105552264075129, -8.469232050579715 ], [ 114.105698049331622, -8.468984238329185 ], [ 114.10584368486613, -8.468756538665605 ], [ 114.105874849664133, -8.468641122470045 ], [ 114.105983568152965, -8.468284931568805 ], [ 114.106068866352118, -8.468021587078786 ], [ 114.106151809303114, -8.467735597928618 ], [ 114.106250972374468, -8.467306427866871 ], [ 114.106308758303314, -8.467007682825527 ], [ 114.106378980951419, -8.466734170371021 ], [ 114.106439103793932, -8.466460582132163 ], [ 114.106496588605467, -8.466202059679413 ], [ 114.106559310542409, -8.465918434606571 ], [ 114.106620208128248, -8.465622226637796 ], [ 114.106508946187915, -8.465589222417247 ], [ 114.106351036502076, -8.465526909708252 ], [ 114.106156080594545, -8.465448233398968 ], [ 114.105961003622625, -8.465385646092473 ], [ 114.105791735140571, -8.465329685939135 ], [ 114.105553195426467, -8.465244250453466 ], [ 114.105396818829732, -8.465193211789009 ], [ 114.105192118560183, -8.465120898884873 ], [ 114.105026070321088, -8.46506657133467 ], [ 114.104814954479863, -8.464987774743543 ], [ 114.104503937294496, -8.464869621626578 ], [ 114.104265327100009, -8.46479383807983 ], [ 114.104073434855806, -8.464737709622467 ], [ 114.103831713304288, -8.464645813757006 ], [ 114.103714059549119, -8.464603107549543 ], [ 114.103506080998145, -8.464537205630641 ], [ 114.103259486927314, -8.464448491351018 ], [ 114.102991909527731, -8.464356402442112 ], [ 114.102648646748818, -8.464228355088734 ], [ 114.102182787693152, -8.464070436218648 ], [ 114.101805602462051, -8.463940526754536 ], [ 114.101210840799112, -8.463731771889764 ], [ 114.10092228140077, -8.463636308203354 ], [ 114.100717583490535, -8.463563993504055 ], [ 114.100575812656444, -8.463505017681983 ], [ 114.1005048308905, -8.463488400960307 ], [ 114.100392026030136, -8.463445729971404 ], [ 114.100301713019505, -8.463420924788901 ], [ 114.100237267415935, -8.463394702605049 ], [ 114.100172797729044, -8.463371698213356 ], [ 114.100117963565268, -8.463356810283665 ], [ 114.100048729451302, -8.463322507585504 ], [ 114.09993909731638, -8.463287904090574 ], [ 114.099818225792959, -8.463243564104749 ], [ 114.099713380432476, -8.463217041942293 ], [ 114.099605460733457, -8.463169580080262 ], [ 114.099453910240072, -8.463121794266268 ], [ 114.099331409954644, -8.463079051060012 ], [ 114.099204050696386, -8.463037880734335 ], [ 114.099091247129266, -8.462995209467671 ], [ 114.09898810317226, -8.462957436866963 ], [ 114.09882528853646, -8.462903130365341 ], [ 114.098691586151489, -8.46284582293185 ], [ 114.098775024287704, -8.462709678608839 ], [ 114.098866747009396, -8.462546242071591 ], [ 114.099025640464674, -8.462261022052566 ], [ 114.09919427664245, -8.461969437363592 ], [ 114.099423703584378, -8.461544757743498 ], [ 114.099564554668973, -8.461294800142717 ], [ 114.099703693216497, -8.461057701629146 ], [ 114.099896989831905, -8.460709985587439 ], [ 114.100173046981013, -8.460411344652528 ], [ 114.10035539805547, -8.460230431048481 ], [ 114.100555720596105, -8.460036280023495 ], [ 114.100908661338067, -8.459686705545499 ], [ 114.101042118597604, -8.459543529540502 ], [ 114.101183023303648, -8.459372605039293 ], [ 114.101270828983559, -8.459248655667936 ], [ 114.101456812631426, -8.458996715034431 ], [ 114.101562191608537, -8.45887392575503 ], [ 114.101737990623732, -8.458641863188037 ], [ 114.101920407721181, -8.458769033299262 ], [ 114.102136927704436, -8.459040210316509 ], [ 114.102344027427009, -8.459311289464907 ], [ 114.102529737941467, -8.459561487355863 ], [ 114.102760814036628, -8.459848425798185 ], [ 114.103031079364442, -8.460110825983215 ], [ 114.10332341616801, -8.460376375504826 ], [ 114.103507105091623, -8.460541274396128 ], [ 114.103605882810854, -8.460707837710803 ], [ 114.103743824756421, -8.460940443244759 ], [ 114.103902139299194, -8.461207400618649 ], [ 114.104070031144005, -8.461498669599223 ], [ 114.104167936992653, -8.461682746530403 ], [ 114.10422468422118, -8.461836822948111 ], [ 114.104407746246892, -8.461914452835753 ], [ 114.104579575188083, -8.461987319692094 ], [ 114.104703359112861, -8.462015647694713 ], [ 114.105003219041137, -8.46208426931751 ], [ 114.105226184236898, -8.462142273184028 ], [ 114.105495403662431, -8.462213845720949 ], [ 114.105630188052487, -8.462366993333614 ], [ 114.105693962952955, -8.462925242954208 ], [ 114.10586161056203, -8.463230751589395 ], [ 114.105974115337943, -8.463270617431181 ], [ 114.106251375561854, -8.463368862367505 ], [ 114.106407885855788, -8.463462426541554 ], [ 114.106623536052183, -8.463591346033983 ], [ 114.106809431829575, -8.463738902264055 ], [ 114.107002615876894, -8.463880389919408 ], [ 114.107215156194798, -8.464001392972806 ], [ 114.107655515585279, -8.464190603820299 ], [ 114.107980552679095, -8.464249670463257 ], [ 114.108334247319505, -8.464313944048538 ], [ 114.108421920850589, -8.464317159687237 ], [ 114.108765134758244, -8.464329747151536 ], [ 114.109467030648858, -8.464375181154772 ] ] ] ] } },
{ "type": "Feature", "properties": { "Shape_Leng": 18687.798566000001, "Shape_Area": 3893685.7255099998, "Dusun": "Sumberurip" }, "geometry": { "type": "MultiPolygon", "coordinates": [ [ [ [ 114.068044505819117, -8.469015587052843 ], [ 114.06818121493329, -8.471163505413513 ], [ 114.065268876949787, -8.470945787507716 ], [ 114.065223582439231, -8.469233740809317 ], [ 114.068044505819117, -8.469015587052843 ] ] ], [ [ [ 114.066363314374399, -8.464955783215501 ], [ 114.066460515868854, -8.465587524195671 ], [ 114.065775421198524, -8.466590544665157 ], [ 114.065195659864585, -8.46715192186087 ], [ 114.064100490058024, -8.466512678813872 ], [ 114.064950216392731, -8.465895309372831 ], [ 114.065223479425157, -8.465404158798389 ], [ 114.065384452007891, -8.465311079499044 ], [ 114.065507792180213, -8.46537728352839 ], [ 114.066363314374399, -8.464955783215501 ] ] ], [ [ [ 114.075411724200677, -8.460431408301933 ], [ 114.074918696337022, -8.460522785748868 ], [ 114.074850676239649, -8.460046940249541 ], [ 114.07533769125348, -8.45996145935551 ], [ 114.075411724200677, -8.460431408301933 ] ] ], [ [ [ 114.040478885934789, -8.452771564876793 ], [ 114.041052610097438, -8.453000743544754 ], [ 114.041490704051881, -8.452866253388803 ], [ 114.041892856245397, -8.45362359174643 ], [ 114.042501841458503, -8.454005346453247 ], [ 114.042617612144781, -8.454107762174006 ], [ 114.042650823539589, -8.454528678789746 ], [ 114.042976339212473, -8.45482850704267 ], [ 114.043113243473073, -8.455025369611533 ], [ 114.043124602710492, -8.455446122031896 ], [ 114.042888302139716, -8.455865000536731 ], [ 114.043199638104113, -8.456113952101337 ], [ 114.044177204296446, -8.455925516315181 ], [ 114.044423371099498, -8.456123204769854 ], [ 114.04424517814661, -8.456564282411041 ], [ 114.044098554638595, -8.456686472913304 ], [ 114.043707350412546, -8.45735803101897 ], [ 114.043450191888809, -8.457646200642742 ], [ 114.042723769905351, -8.457379602564702 ], [ 114.042758052810314, -8.45670534635757 ], [ 114.042281451631368, -8.456157776800973 ], [ 114.042313909114227, -8.455722851544275 ], [ 114.042157698539754, -8.455192211229118 ], [ 114.041868880580452, -8.454856395878517 ], [ 114.0414881168508, -8.454274447242371 ], [ 114.041379492957788, -8.453846578110944 ], [ 114.041178574742318, -8.453905401604182 ], [ 114.04085260236964, -8.453856517182237 ], [ 114.0406123151797, -8.453576189913949 ], [ 114.040529106764012, -8.453388577400224 ], [ 114.040269680642041, -8.453267236208148 ], [ 114.039975543257526, -8.452712633942607 ], [ 114.040225735634124, -8.452306047380105 ], [ 114.040582049779559, -8.452044159869006 ], [ 114.040542998377674, -8.451663235373994 ], [ 114.040287202784498, -8.451582388630403 ], [ 114.039844314771869, -8.450970959278607 ], [ 114.039351058043422, -8.450044433704644 ], [ 114.038758024023323, -8.449097407277568 ], [ 114.038305275296665, -8.448374402837523 ], [ 114.038605799630375, -8.448130080215487 ], [ 114.038772499571309, -8.448240134740356 ], [ 114.039009604149541, -8.448669846254999 ], [ 114.039537956095444, -8.449116266895157 ], [ 114.040304059000874, -8.450862744726477 ], [ 114.040717089347183, -8.451148729896387 ], [ 114.041186067557788, -8.451739758307724 ], [ 114.041176127909026, -8.452087819830549 ], [ 114.040478885934789, -8.452771564876793 ] ] ], [ [ [ 114.039726662829025, -8.444432359527845 ], [ 114.040899723999516, -8.446305209966587 ], [ 114.042009078538442, -8.446980857248487 ], [ 114.042943842760963, -8.447626172520481 ], [ 114.043516568258028, -8.447985890210902 ], [ 114.044392789903668, -8.44866702556596 ], [ 114.045891629725631, -8.449853309614271 ], [ 114.047433417405273, -8.449226693320131 ], [ 114.049725402958259, -8.449570361897489 ], [ 114.053166793053123, -8.450118506054457 ], [ 114.055065514986836, -8.450451931980975 ], [ 114.057866702785645, -8.450893678360133 ], [ 114.057852596524498, -8.451792937992835 ], [ 114.056069911712882, -8.451525672742655 ], [ 114.054571201645118, -8.451275044916384 ], [ 114.052737813830873, -8.450971119727969 ], [ 114.049922295923977, -8.450500218117954 ], [ 114.048416096584461, -8.45027852391719 ], [ 114.04746282635405, -8.450148031696965 ], [ 114.046389146172814, -8.450524330305246 ], [ 114.045303549059, -8.450552398177889 ], [ 114.04343665396415, -8.448913652964718 ], [ 114.042219635494106, -8.448026859755068 ], [ 114.041263406626115, -8.447330610954745 ], [ 114.040510080931909, -8.446773698468188 ], [ 114.040191690797712, -8.446495682606605 ], [ 114.0396041275622, -8.446172114559555 ], [ 114.039452272187404, -8.446025908797669 ], [ 114.039512479933052, -8.445772515588519 ], [ 114.039063423258156, -8.445435488394674 ], [ 114.038821727248049, -8.445607728194028 ], [ 114.038459081569613, -8.445401904966467 ], [ 114.038502182914158, -8.445051461731603 ], [ 114.038244716638772, -8.444856321583831 ], [ 114.03819660687067, -8.444478809932107 ], [ 114.038622169875651, -8.44407587050264 ], [ 114.039726662829025, -8.444432359527845 ] ] ], [ [ [ 114.100613722814501, -8.458104524459101 ], [ 114.101737990623732, -8.458641863188037 ], [ 114.098691586151489, -8.46284582293185 ], [ 114.098341710721343, -8.462729509562353 ], [ 114.097587000564729, -8.462411679084804 ], [ 114.097100839696665, -8.462176738397076 ], [ 114.096621476404835, -8.462274960915021 ], [ 114.096250858207156, -8.462124156668883 ], [ 114.095944390149512, -8.462094118783716 ], [ 114.095639240458141, -8.461888281273406 ], [ 114.095348482267866, -8.461622405730294 ], [ 114.09515967235582, -8.461394299105201 ], [ 114.094984975320855, -8.461143165433196 ], [ 114.094759582665006, -8.460836136394391 ], [ 114.094718737542181, -8.460086327142632 ], [ 114.094210118975923, -8.460378984994447 ], [ 114.093725928906807, -8.46049071073373 ], [ 114.093291412017379, -8.460345074826119 ], [ 114.09305287007129, -8.460393173467802 ], [ 114.092731354291487, -8.460511072144028 ], [ 114.092007149546475, -8.460417779023039 ], [ 114.091145484814959, -8.460684333157834 ], [ 114.089974481322329, -8.460684868520984 ], [ 114.087934400013324, -8.460702056880983 ], [ 114.087870858713742, -8.458920834542987 ], [ 114.087285578276848, -8.459019194708794 ], [ 114.086557260946734, -8.459038195606142 ], [ 114.08584958633682, -8.458993757220775 ], [ 114.085608759644217, -8.458763514108224 ], [ 114.085632807312976, -8.458616834499827 ], [ 114.085933893993428, -8.458243772777539 ], [ 114.085823264607313, -8.458135250932992 ], [ 114.085425788400428, -8.458249774797352 ], [ 114.085187086749698, -8.458172933478073 ], [ 114.085004963097646, -8.45798229072094 ], [ 114.084757606766303, -8.457748735649702 ], [ 114.084363151052116, -8.457461865600147 ], [ 114.083984928336847, -8.457126308967798 ], [ 114.08368250180024, -8.456885455260766 ], [ 114.083445553014741, -8.456804847389547 ], [ 114.083041113010367, -8.456689545693603 ], [ 114.082569834841394, -8.456640324104537 ], [ 114.082070209021992, -8.456104736379643 ], [ 114.081539566343125, -8.455634766144046 ], [ 114.080776403353582, -8.454965513261687 ], [ 114.080143028870651, -8.454626473467339 ], [ 114.079510609648381, -8.454160807370554 ], [ 114.079355235946778, -8.453850663217274 ], [ 114.079352628865863, -8.45352139930632 ], [ 114.079509515680954, -8.452955255165627 ], [ 114.079722741228323, -8.452338879378919 ], [ 114.079612807876302, -8.452074662277649 ], [ 114.079548315813625, -8.451856372902125 ], [ 114.079520044236673, -8.451557308716282 ], [ 114.079562991044114, -8.451258775305545 ], [ 114.079574767286033, -8.451046120706254 ], [ 114.079547220185233, -8.450650820543418 ], [ 114.079652965747186, -8.450119751758178 ], [ 114.079818077752208, -8.449812000144989 ], [ 114.080139363846115, -8.449708026572585 ], [ 114.080634601981629, -8.449473652284464 ], [ 114.081232303868688, -8.449143799946114 ], [ 114.081742725286901, -8.44891966692084 ], [ 114.082177411570498, -8.448618989199128 ], [ 114.082777359337356, -8.447990296362059 ], [ 114.083089398804191, -8.447085929220085 ], [ 114.083725698750499, -8.44703495139118 ], [ 114.083795218330081, -8.446584655726223 ], [ 114.083870738175648, -8.446012835906737 ], [ 114.083832325891606, -8.445708629151802 ], [ 114.083830549980888, -8.445267932142194 ], [ 114.08379615815798, -8.445105585750813 ], [ 114.083812561189774, -8.444953747640787 ], [ 114.084143370150287, -8.444935950970528 ], [ 114.084478744853499, -8.444310347366022 ], [ 114.08462104002605, -8.443652913068808 ], [ 114.084866691031579, -8.442997666349834 ], [ 114.085090030600782, -8.442305581063062 ], [ 114.085360573271672, -8.44183104771998 ], [ 114.085455644423291, -8.441744225820893 ], [ 114.085619482603747, -8.441637895184032 ], [ 114.091737704807727, -8.442672522552721 ], [ 114.092579854571682, -8.442690109405104 ], [ 114.098771750452656, -8.443874427126403 ], [ 114.098545954359253, -8.444447619017868 ], [ 114.098676908769335, -8.445243459585521 ], [ 114.098536798310079, -8.445888392453019 ], [ 114.098438392588719, -8.4463855811578 ], [ 114.098055535986262, -8.446934507305892 ], [ 114.097509251591646, -8.447630252041549 ], [ 114.097101001901166, -8.447950229257453 ], [ 114.096449610732222, -8.448227987569153 ], [ 114.09617714098745, -8.448481677046262 ], [ 114.095971324277315, -8.449256089537117 ], [ 114.095802454665332, -8.451025444278978 ], [ 114.095970795732271, -8.451515662543992 ], [ 114.096633690419807, -8.452548470640197 ], [ 114.097200267306945, -8.453160888670123 ], [ 114.097713909088441, -8.454341854352753 ], [ 114.098599000629406, -8.455173988066207 ], [ 114.098610569119373, -8.455678576020905 ], [ 114.098478705604521, -8.456248639039362 ], [ 114.098693140597049, -8.45692945532835 ], [ 114.099049369648284, -8.457439946406685 ], [ 114.099405360679995, -8.457705471009056 ], [ 114.100613722814501, -8.458104524459101 ] ] ] ] } },
{ "type": "Feature", "properties": { "Shape_Leng": 12279.5308449, "Shape_Area": 2668326.2101400001, "Dusun": "Sumbermanggis" }, "geometry": { "type": "MultiPolygon", "coordinates": [ [ [ [ 114.099303626460198, -8.437616245526453 ], [ 114.099876121542238, -8.439088777048561 ], [ 114.098015344609493, -8.438942956638048 ], [ 114.097909853601308, -8.43886295084557 ], [ 114.097811819698876, -8.437784773853863 ], [ 114.097543321366743, -8.437513421893978 ], [ 114.097596525857895, -8.436071933770693 ], [ 114.098991628725543, -8.436066418535599 ], [ 114.099186514602408, -8.437034502555896 ], [ 114.099303626460198, -8.437616245526453 ] ] ], [ [ [ 114.09135289769921, -8.430887091327552 ], [ 114.091447604182193, -8.431063081323414 ], [ 114.091678871182708, -8.431168375777844 ], [ 114.091782234524985, -8.431256786194913 ], [ 114.091892229066389, -8.431528500557734 ], [ 114.092114302593927, -8.431793079883215 ], [ 114.09238504194964, -8.431970375366708 ], [ 114.092736093816839, -8.432108428419863 ], [ 114.092942882073558, -8.432277281341603 ], [ 114.093092883869943, -8.432549293276825 ], [ 114.093315376773248, -8.432758101361541 ], [ 114.093458808661566, -8.432838841455952 ], [ 114.093440541559261, -8.433141475599598 ], [ 114.093293534491693, -8.433538767160046 ], [ 114.093147302600912, -8.433832486009058 ], [ 114.093161041204397, -8.434135357380523 ], [ 114.093383832725564, -8.434304330057561 ], [ 114.093622925544153, -8.43443358474836 ], [ 114.093886201579735, -8.434539116088038 ], [ 114.094053578901381, -8.434628000975525 ], [ 114.094116399071495, -8.434787820157087 ], [ 114.094019546840499, -8.434898648584669 ], [ 114.093754661676655, -8.435008231937347 ], [ 114.093538261777184, -8.435054432367622 ], [ 114.093464996475319, -8.435221209617232 ], [ 114.093479092585696, -8.435476278610043 ], [ 114.093733116570434, -8.435749061351483 ], [ 114.094266778782853, -8.436079691708882 ], [ 114.094504859172858, -8.436344389716675 ], [ 114.094567859246695, -8.436480306827256 ], [ 114.09459676744784, -8.4368948384358 ], [ 114.094642513042203, -8.437197947453516 ], [ 114.094824881055828, -8.437422393631143 ], [ 114.095127751094239, -8.437583991761809 ], [ 114.095237628510489, -8.437871641879513 ], [ 114.095335155487362, -8.438740837874157 ], [ 114.095627761511182, -8.43920513089336 ], [ 114.095705275143771, -8.439540347275685 ], [ 114.095864652765272, -8.439629172911848 ], [ 114.096015612203729, -8.43977370943278 ], [ 114.096070313004518, -8.439949403083356 ], [ 114.096236024993928, -8.440261369880025 ], [ 114.096451355935969, -8.440358578342494 ], [ 114.096731176397896, -8.440392522320073 ], [ 114.096858488229657, -8.440489078205257 ], [ 114.097224362040819, -8.440786593037032 ], [ 114.09744525317457, -8.441210516382368 ], [ 114.097723527116798, -8.441451607572608 ], [ 114.097921782970374, -8.441692106647009 ], [ 114.098184053133565, -8.441933080026777 ], [ 114.098525924517034, -8.442230416551968 ], [ 114.098884335828558, -8.442456166613983 ], [ 114.099122542734278, -8.442704929606379 ], [ 114.099420466783059, -8.442862770310839 ], [ 114.099302309376199, -8.442971554792646 ], [ 114.098878334982828, -8.443603847954767 ], [ 114.098771750452656, -8.443874427126403 ], [ 114.092579854571682, -8.442690109405104 ], [ 114.091737704807727, -8.442672522552721 ], [ 114.085619482603747, -8.441637895184032 ], [ 114.085717388474393, -8.441574357053208 ], [ 114.08600233469798, -8.44134955001212 ], [ 114.086447684094864, -8.441009230798135 ], [ 114.087217848952648, -8.440337418049319 ], [ 114.087549782885631, -8.439924932831174 ], [ 114.087690822251261, -8.439786583439327 ], [ 114.087855938532712, -8.439476596040624 ], [ 114.088044938707256, -8.439020903278786 ], [ 114.088029463053473, -8.438479404114128 ], [ 114.087809045625804, -8.437816079078305 ], [ 114.087626250635097, -8.437542761369361 ], [ 114.087348404036149, -8.437255415432013 ], [ 114.086987611892923, -8.437174929916846 ], [ 114.086535588333277, -8.437103490999904 ], [ 114.085790145129735, -8.437084980176213 ], [ 114.085551729274542, -8.437183703952861 ], [ 114.085403596471394, -8.437399803235337 ], [ 114.085210342517954, -8.437988376293863 ], [ 114.08498915005049, -8.438395199486052 ], [ 114.08460755349779, -8.438917534598106 ], [ 114.084334876624851, -8.439242928256487 ], [ 114.084309191043545, -8.439628512931527 ], [ 114.084251192376982, -8.439981439179368 ], [ 114.083561456274751, -8.439914710166045 ], [ 114.083142183611344, -8.439817575309982 ], [ 114.083085936041698, -8.439937103583951 ], [ 114.083059344742097, -8.440902410591226 ], [ 114.082596389919559, -8.441009922468078 ], [ 114.081970662786006, -8.441015854449009 ], [ 114.081505732069957, -8.441123935570953 ], [ 114.080906630870757, -8.440984023349476 ], [ 114.080492345715555, -8.440741909045462 ], [ 114.079901547576213, -8.440562219165907 ], [ 114.079550257925817, -8.440456022098283 ], [ 114.079175622513205, -8.440262006986638 ], [ 114.077577405680273, -8.44069837156538 ], [ 114.076756007823406, -8.440963111689847 ], [ 114.076218164513008, -8.441004786595244 ], [ 114.076073678120991, -8.440605560986317 ], [ 114.075893959906253, -8.440532422442697 ], [ 114.075767439923226, -8.440386049305312 ], [ 114.075194428447588, -8.440265729189969 ], [ 114.074274211649993, -8.439899611770329 ], [ 114.073884256736548, -8.439871635975202 ], [ 114.073642762356798, -8.439662986000592 ], [ 114.07321574819251, -8.439250700552533 ], [ 114.072821512992007, -8.438982652583551 ], [ 114.072473388066541, -8.438745954502599 ], [ 114.072277255114599, -8.438226602159627 ], [ 114.072238568292292, -8.438051028488996 ], [ 114.072276278738983, -8.437294398848898 ], [ 114.072414344813325, -8.43702453646014 ], [ 114.072706299094008, -8.436508830750041 ], [ 114.073021175998051, -8.436136710354168 ], [ 114.073672171631472, -8.435759132367989 ], [ 114.073776190134097, -8.435759909062227 ], [ 114.074408183295319, -8.435780562564204 ], [ 114.07451364155483, -8.435590129803849 ], [ 114.0746510455389, -8.435407902517248 ], [ 114.075214383315213, -8.434981861474748 ], [ 114.075551521850244, -8.434840962282763 ], [ 114.075473127167172, -8.434625254079705 ], [ 114.075506092288151, -8.434498020227066 ], [ 114.075753656131354, -8.434563606755194 ], [ 114.076026843485749, -8.434414262750671 ], [ 114.07618096761459, -8.434136549573614 ], [ 114.076469378286561, -8.43409089547289 ], [ 114.07670261740958, -8.433933284836536 ], [ 114.076768306908548, -8.433710684115864 ], [ 114.077048595592515, -8.433680904001568 ], [ 114.077201641082198, -8.433546597153875 ], [ 114.077721552668336, -8.433574375550766 ], [ 114.07807307526582, -8.43364870353629 ], [ 114.078127013571802, -8.432860320871006 ], [ 114.078585069938768, -8.432600805313168 ], [ 114.078882558442004, -8.432411801261996 ], [ 114.07897219019803, -8.432197346061077 ], [ 114.079205607011289, -8.432015831358919 ], [ 114.079575166997572, -8.431819396293958 ], [ 114.079751198232302, -8.431820707432049 ], [ 114.079951711180513, -8.431758460210888 ], [ 114.080319714937417, -8.43176916788687 ], [ 114.080799439652083, -8.431820545407078 ], [ 114.080974333456084, -8.431973231157704 ], [ 114.081269368153357, -8.432110876109917 ], [ 114.081477284997121, -8.432128359059249 ], [ 114.081693562677614, -8.43209809860846 ], [ 114.081862070961208, -8.432035612128393 ], [ 114.08207022712439, -8.432021226175712 ], [ 114.082198847305705, -8.431942508377816 ], [ 114.082423963109974, -8.431800766936524 ], [ 114.08268126389008, -8.431635363352886 ], [ 114.082939400555944, -8.431358418484816 ], [ 114.083148333614645, -8.431240460179405 ], [ 114.083404677454766, -8.431202528566173 ], [ 114.083525714597116, -8.431067980086013 ], [ 114.084055002569784, -8.430912565285496 ], [ 114.084143914199515, -8.430793712824299 ], [ 114.084391897467299, -8.430803524808063 ], [ 114.084735659058097, -8.430845918248405 ], [ 114.084960176287737, -8.430783846478079 ], [ 114.084929962662414, -8.430544594454686 ], [ 114.084955579348374, -8.430329660742808 ], [ 114.085188695424421, -8.430187977425829 ], [ 114.085215506404907, -8.429813700258153 ], [ 114.085225837513278, -8.429503041491312 ], [ 114.08541936346856, -8.429305289845621 ], [ 114.085724669168286, -8.429140240004134 ], [ 114.086060966264995, -8.429110868255778 ], [ 114.086216574497527, -8.428633968948821 ], [ 114.086377735785121, -8.428483781809041 ], [ 114.086721973697976, -8.428462436347324 ], [ 114.08702536870689, -8.428552333102028 ], [ 114.087600154620844, -8.428731888401336 ], [ 114.088182764222822, -8.428935404465628 ], [ 114.088509747454694, -8.429081248420308 ], [ 114.088893277388593, -8.429155803613959 ], [ 114.089203721607277, -8.429373233587526 ], [ 114.089570355689943, -8.429567177043461 ], [ 114.089858048136236, -8.429617117796665 ], [ 114.090465559424786, -8.429701300884659 ], [ 114.091048948149449, -8.429801240395097 ], [ 114.091152370641709, -8.429881683148903 ], [ 114.091397792208937, -8.430234079355248 ], [ 114.091403886857975, -8.430489087708654 ], [ 114.09135289769921, -8.430887091327552 ] ] ], [ [ [ 114.057823404366331, -8.426432479368657 ], [ 114.061178679478132, -8.426726981726437 ], [ 114.061212298319461, -8.426489567881507 ], [ 114.06183743045807, -8.426589316674484 ], [ 114.061814021079101, -8.42687962208803 ], [ 114.061320605631067, -8.426897052039658 ], [ 114.061175407405941, -8.427160037013493 ], [ 114.061343893309285, -8.427325024221913 ], [ 114.061433858415057, -8.427352106068332 ], [ 114.061517003710691, -8.427579831303985 ], [ 114.0614879310574, -8.427917626946893 ], [ 114.06144390427751, -8.428128555843475 ], [ 114.060863156382823, -8.427770346831563 ], [ 114.060587756128157, -8.427715468329938 ], [ 114.060386005389589, -8.428442797517103 ], [ 114.05861744026322, -8.428043993477642 ], [ 114.058656093441485, -8.427141155382222 ], [ 114.057703005373355, -8.426922750866124 ], [ 114.057823404366331, -8.426432479368657 ] ] ], [ [ [ 114.099054432996752, -8.423738568116582 ], [ 114.098250305546287, -8.423765634193062 ], [ 114.097821944326341, -8.423415859271254 ], [ 114.097635087372623, -8.422911072801979 ], [ 114.097710618270185, -8.421673750024528 ], [ 114.09781098940627, -8.421550704781215 ], [ 114.098271997430885, -8.421925344885089 ], [ 114.098814665958756, -8.421990200502616 ], [ 114.099115844839602, -8.422171037896389 ], [ 114.099328857502215, -8.422502714466422 ], [ 114.099408164281698, -8.422981948658197 ], [ 114.099054432996752, -8.423738568116582 ] ] ] ] } }
]
}
