{
"type": "FeatureCollection",
"name": "merge_umkm_barurejo",
"crs": { "type": "name", "properties": { "name": "urn:ogc:def:crs:OGC:1.3:CRS84" } },
"features": [
{ "type": "Feature", "properties": { "Name": "Kolam Pancing Banyumili", "FolderPath": "Document/Lapisan", "SymbolID": 0, "AltMode": -1, "Base": 0.0, "TimeSpan": 0, "TimeStamp": -1, "BeginTime": "2026-07-23T11:55:27+07:00", "HasLabel": -1, "LabelID": 0, "Kategori": "Perikanan\n", "Produk": "Kolam pancing", "Dusun": "Krajan", "Foto": "Kolam Pancing Banyumili.jpg" }, "geometry": { "type": "Point", "coordinates": [ 114.113310520000027, -8.474798686999975, 0.0 ] } },
{ "type": "Feature", "properties": { "Name": "Tiga bersaudara material", "FolderPath": "Document/Lapisan", "SymbolID": 0, "AltMode": -1, "Base": 0.0, "TimeSpan": 0, "TimeStamp": -1, "BeginTime": "2026-07-23T11:25:26+07:00", "HasLabel": -1, "LabelID": 0, "Kategori": "Kerajinan", "Produk": "Batako", "Dusun": "Krajan", "Foto": "Tiga bersaudara material.jpg" }, "geometry": { "type": "Point", "coordinates": [ 114.117579604000071, -8.472011278999958, 0.0 ] } },
{ "type": "Feature", "properties": { "Name": "Ud.Mela", "FolderPath": "Document/Lapisan", "SymbolID": 0, "AltMode": -1, "Base": 0.0, "TimeSpan": 0, "TimeStamp": -1, "BeginTime": "2026-07-23T11:37:49+07:00", "HasLabel": -1, "LabelID": 0, "Kategori": "Kerajinan", "Produk": "Mebel", "Dusun": "Krajan", "Foto": "Ud.Mela.jpg" }, "geometry": { "type": "Point", "coordinates": [ 114.11903274000008, -8.476189709999971, 0.0 ] } },
{ "type": "Feature", "properties": { "Name": "Warung tepi ladang (parno)", "FolderPath": "Document/Lapisan", "SymbolID": 0, "AltMode": -1, "Base": 0.0, "TimeSpan": 0, "TimeStamp": -1, "BeginTime": "2026-07-23T12:18:52+07:00", "HasLabel": -1, "LabelID": 0, "Kategori": "Minuman", "Produk": "Cendol", "Dusun": "Krajan", "Foto": "Warung tepi ladang (parno).jpg" }, "geometry": { "type": "Point", "coordinates": [ 114.105565498000033, -8.481255364999981, 0.0 ] } },
{ "type": "Feature", "properties": { "Name": "Zha Craft Florist Hand Made", "FolderPath": "Document/Lapisan", "SymbolID": 0, "AltMode": -1, "Base": 0.0, "TimeSpan": 0, "TimeStamp": -1, "BeginTime": "2026-07-23T11:18:59+07:00", "HasLabel": -1, "LabelID": 0, "Kategori": "Kerajinan", "Produk": "Bunga buatan", "Dusun": "Krajan", "Foto": "Zha Craft Florist Hand Made.jpg" }, "geometry": { "type": "Point", "coordinates": [ 114.114569841000048, -8.470250767999971, 0.0 ] } },
{ "type": "Feature", "properties": { "Name": "Toko Bu Rohima", "FolderPath": "Document/UMKM", "SymbolID": 1, "AltMode": -1, "Base": 0.0, "TimeSpan": 0, "TimeStamp": -1, "BeginTime": "2026-07-21T13:21:17+07:00", "HasLabel": -1, "LabelID": 0, "Kategori": "Kelontong", "Produk": "Bahan pokok", "Dusun": "Sumber Urip", "Foto": "Toko Bu Rohima.jpg" }, "geometry": { "type": "Point", "coordinates": [ 114.085828000000106, -8.449062, 0.0 ] } },
{ "type": "Feature", "properties": { "Name": "Toko Bu Sumarti", "FolderPath": "Document/UMKM", "SymbolID": 1, "AltMode": -1, "Base": 0.0, "TimeSpan": 0, "TimeStamp": -1, "BeginTime": "2026-07-21T13:28:46+07:00", "HasLabel": -1, "LabelID": 0, "Kategori": "Kelontong", "Produk": "Barang rumahan", "Dusun": "Sumber Urip", "Foto": "Toko Bu Sumarti.jpg" }, "geometry": { "type": "Point", "coordinates": [ 114.088237460000073, -8.449273790999939, 0.0 ] } },
{ "type": "Feature", "properties": { "Name": "Toko Cahaya Tani Barurejo", "FolderPath": "Document/UMKM", "SymbolID": 1, "AltMode": -1, "Base": 0.0, "TimeSpan": 0, "TimeStamp": -1, "BeginTime": "2026-07-21T11:58:14+07:00", "HasLabel": -1, "LabelID": 0, "Kategori": "Pertanian", "Produk": "Alat dan obat pertanian", "Dusun": "Sumber Urip", "Foto": "Toko Cahaya Tani Barurejo.jpg" }, "geometry": { "type": "Point", "coordinates": [ 114.09025882800006, -8.45364277799996, 0.0 ] } },
{ "type": "Feature", "properties": { "Name": "Toko Dwi Jaya", "FolderPath": "Document/UMKM", "SymbolID": 1, "AltMode": -1, "Base": 0.0, "TimeSpan": 0, "TimeStamp": -1, "BeginTime": "2026-07-21T13:34:51+07:00", "HasLabel": -1, "LabelID": 0, "Kategori": "Kelontong", "Produk": "Barang rumahan", "Dusun": "Sumber Urip", "Foto": "Toko Dwi Jaya.jpg" }, "geometry": { "type": "Point", "coordinates": [ 114.088659866000057, -8.443856227999959, 0.0 ] } },
{ "type": "Feature", "properties": { "Name": "Toko Kelontong Mba Maryam", "FolderPath": "Document/UMKM", "SymbolID": 1, "AltMode": -1, "Base": 0.0, "TimeSpan": 0, "TimeStamp": -1, "BeginTime": "2026-07-21T12:05:12+07:00", "HasLabel": -1, "LabelID": 0, "Kategori": "Kelontong", "Produk": "Mainan dan Bahan pokok", "Dusun": "Sumber Urip", "Foto": "Toko Kelontong Mba Maryam.jpg" }, "geometry": { "type": "Point", "coordinates": [ 114.089954119000026, -8.453531557999952, 0.0 ] } },
{ "type": "Feature", "properties": { "Name": "Toko Madura Ayang Cindi", "FolderPath": "Document/UMKM", "SymbolID": 1, "AltMode": -1, "Base": 0.0, "TimeSpan": 0, "TimeStamp": -1, "BeginTime": "2026-07-21T13:07:43+07:00", "HasLabel": -1, "LabelID": 0, "Kategori": "Kelontong", "Produk": "Sembako", "Dusun": "Sumber Urip", "Foto": "Toko Madura Ayang Cindi.jpg" }, "geometry": { "type": "Point", "coordinates": [ 114.084753790000036, -8.451765029999933, 0.0 ] } },
{ "type": "Feature", "properties": { "Name": "Toko Pojok Pak Paidi", "FolderPath": "Document/UMKM", "SymbolID": 1, "AltMode": -1, "Base": 0.0, "TimeSpan": 0, "TimeStamp": -1, "BeginTime": "2026-07-21T12:47:23+07:00", "HasLabel": -1, "LabelID": 0, "Kategori": "Makanan dan minuman", "Produk": "Jajanan", "Dusun": "Sumber Urip", "Foto": "Toko Pojok Pak Paidi.jpg" }, "geometry": { "type": "Point", "coordinates": [ 114.084032770000022, -8.453933479999932, 0.0 ] } },
{ "type": "Feature", "properties": { "Name": "Warung bu Sri Yati", "FolderPath": "Document/UMKM", "SymbolID": 1, "AltMode": -1, "Base": 0.0, "TimeSpan": 0, "TimeStamp": -1, "BeginTime": "2026-07-21T13:13:40+07:00", "HasLabel": -1, "LabelID": 0, "Kategori": "Kelontong", "Produk": "Barang rumahan", "Dusun": "Sumber Urip", "Foto": "Toko Bu Sri Yati.jpg" }, "geometry": { "type": "Point", "coordinates": [ 114.085864233000052, -8.450408226999969, 0.0 ] } },
{ "type": "Feature", "properties": { "Name": "Warung kitiran", "FolderPath": "Document/UMKM", "SymbolID": 1, "AltMode": -1, "Base": 0.0, "TimeSpan": 0, "TimeStamp": -1, "BeginTime": "2026-07-22T12:29:30+07:00", "HasLabel": -1, "LabelID": 0, "Kategori": "Makanan dan minuman", "Produk": "Jajanan", "Dusun": "Sumber Urip", "Foto": "Warung kitiran.jpg" }, "geometry": { "type": "Point", "coordinates": [ 114.075158010000109, -8.460110159999942, 0.0 ] } }
]
}
